IRIDIUM 26              
1 24903U 97043A   25197.77717198  .00000256  00000+0  79543-4 0  9996
2 24903  86.3949  98.1935 0002183  79.6981 280.4462 14.37162954460994
DUMMY MASS 1            
1 24925U 97048A   25197.89209908  .00000323  00000+0  32837-4 0  9993
2 24925  86.3366 121.5996 0008472  53.8530 306.3478 14.87004941509546
DUMMY MASS 2            
1 24926U 97048B   25197.85919811  .00000319  00000+0  32681-4 0  9993
2 24926  86.3366 123.2273 0009523  61.9786 298.2401 14.86756860509318
IRIDIUM 29              
1 24944U 97051A   25197.88320705  .00000294  00000+0  93517-4 0  9995
2 24944  86.3984 131.4474 0002237  90.4310 269.7143 14.36486365457530
IRIDIUM 33              
1 24946U 97051C   25197.89762448  .00000242  00000+0  78204-4 0  9991
2 24946  86.3900 130.7042 0007620 358.3143   1.8026 14.34907144457002
IRIDIUM 28              
1 24948U 97051E   25197.90767186  .00000263  00000+0  81492-4 0  9995
2 24948  86.3988 128.9367 0002254  72.5631 287.5812 14.37402090458116
IRIDIUM 36              
1 24967U 97056C   25197.93598220  .00000293  00000+0  90997-4 0  9998
2 24967  86.4006 160.5098 0002036  84.2441 275.8989 14.37627568456492
